{
  "type": "FeatureCollection",
  "features": [
    {
      "type": "Feature",
      "properties": {
        "norad_id": 66711,
        "name": "FLOCK 4H-8",
        "group": "last-30-days",
        "lat": -61.16184351503298,
        "lon": -123.83848517471644,
        "alt_km": 519.0097086960222,
        "timestamp": "2025-12-24T07:45:04.931702+00:00",
        "meta_object_name": "FLOCK 4H-8",
        "meta_object_id": "2025-276AX",
        "meta_epoch": "2025-12-23T21:11:33.361728",
        "meta_mean_motion": 15.1749622,
        "meta_eccentricity": 0.00024131,
        "meta_inclination": 97.4429,
        "meta_ra_of_asc_node": 69.4636,
        "meta_arg_of_pericenter": 263.1547,
        "meta_mean_anomaly": 96.9412,
        "meta_ephemeris_type": 0,
        "meta_classification_type": "U",
        "meta_norad_cat_id": 66711,
        "meta_element_set_no": 999,
        "meta_rev_at_epoch": 381,
        "meta_bstar": 0.00051121069,
        "meta_mean_motion_dot": 0.00010186,
        "meta_mean_motion_ddot": 0,
        "tle_line1": "1 66711U 25276AX  25357.88302502  .00010186  00000+0  51121-3 0  9991",
        "tle_line2": "2 66711  97.4429  69.4636 0002413 263.1547  96.9412 15.17496220  3810"
      },
      "geometry": {
        "type": "Point",
        "coordinates": [
          -123.83848517471644,
          -61.16184351503298
        ]
      }
    },
    {
      "type": "Feature",
      "properties": {
        "norad_id": 66712,
        "name": "FLOCK 4H-9",
        "group": "last-30-days",
        "lat": -73.56909739309982,
        "lon": 96.22407927808949,
        "alt_km": 518.9120546959166,
        "timestamp": "2025-12-24T07:45:04.931714+00:00",
        "meta_object_name": "FLOCK 4H-9",
        "meta_object_id": "2025-276AY",
        "meta_epoch": "2025-12-23T21:00:28.954368",
        "meta_mean_motion": 15.17927252,
        "meta_eccentricity": 0.00027373,
        "meta_inclination": 97.4423,
        "meta_ra_of_asc_node": 69.4717,
        "meta_arg_of_pericenter": 211.711,
        "meta_mean_anomaly": 148.3959,
        "meta_ephemeris_type": 0,
        "meta_classification_type": "U",
        "meta_norad_cat_id": 66712,
        "meta_element_set_no": 999,
        "meta_rev_at_epoch": 381,
        "meta_bstar": 0.00037687253,
        "meta_mean_motion_dot": 7.583e-05,
        "meta_mean_motion_ddot": 0,
        "tle_line1": "1 66712U 25276AY  25357.87533512  .00007583  00000+0  37687-3 0  9996",
        "tle_line2": "2 66712  97.4423  69.4717 0002737 211.7110 148.3959 15.17927252  3811"
      },
      "geometry": {
        "type": "Point",
        "coordinates": [
          96.22407927808949,
          -73.56909739309982
        ]
      }
    },
    {
      "type": "Feature",
      "properties": {
        "norad_id": 66713,
        "name": "FLOCK 4H-10",
        "group": "last-30-days",
        "lat": -43.03204897214293,
        "lon": -117.13316495743788,
        "alt_km": 518.4436122634033,
        "timestamp": "2025-12-24T07:45:04.931727+00:00",
        "meta_object_name": "FLOCK 4H-10",
        "meta_object_id": "2025-276AZ",
        "meta_epoch": "2025-12-23T22:51:20.305440",
        "meta_mean_motion": 15.17293341,
        "meta_eccentricity": 0.00037762,
        "meta_inclination": 97.4396,
        "meta_ra_of_asc_node": 69.5098,
        "meta_arg_of_pericenter": 254.6678,
        "meta_mean_anomaly": 105.4138,
        "meta_ephemeris_type": 0,
        "meta_classification_type": "U",
        "meta_norad_cat_id": 66713,
        "meta_element_set_no": 999,
        "meta_rev_at_epoch": 382,
        "meta_bstar": 0.0007298644,
        "meta_mean_motion_dot": 0.00014496,
        "meta_mean_motion_ddot": 0,
        "tle_line1": "1 66713U 25276AZ  25357.95231835  .00014496  00000+0  72986-3 0  9991",
        "tle_line2": "2 66713  97.4396  69.5098 0003776 254.6678 105.4138 15.17293341  3822"
      },
      "geometry": {
        "type": "Point",
        "coordinates": [
          -117.13316495743788,
          -43.03204897214293
        ]
      }
    },
    {
      "type": "Feature",
      "properties": {
        "norad_id": 66714,
        "name": "FLOCK 4H-11",
        "group": "last-30-days",
        "lat": -73.10691345158703,
        "lon": -135.59428960642524,
        "alt_km": 518.3546142834148,
        "timestamp": "2025-12-24T07:45:04.931737+00:00",
        "meta_object_name": "FLOCK 4H-11",
        "meta_object_id": "2025-276BA",
        "meta_epoch": "2025-12-23T21:08:19.496544",
        "meta_mean_motion": 15.17812708,
        "meta_eccentricity": 0.00020945,
        "meta_inclination": 97.4414,
        "meta_ra_of_asc_node": 69.4628,
        "meta_arg_of_pericenter": 271.9221,
        "meta_mean_anomaly": 88.1773,
        "meta_ephemeris_type": 0,
        "meta_classification_type": "U",
        "meta_norad_cat_id": 66714,
        "meta_element_set_no": 999,
        "meta_rev_at_epoch": 381,
        "meta_bstar": 0.00061625143,
        "meta_mean_motion_dot": 0.00012408,
        "meta_mean_motion_ddot": 0,
        "tle_line1": "1 66714U 25276BA  25357.88078121  .00012408  00000+0  61625-3 0  9990",
        "tle_line2": "2 66714  97.4414  69.4628 0002094 271.9221  88.1773 15.17812708  3815"
      },
      "geometry": {
        "type": "Point",
        "coordinates": [
          -135.59428960642524,
          -73.10691345158703
        ]
      }
    },
    {
      "type": "Feature",
      "properties": {
        "norad_id": 66715,
        "name": "FLOCK 4H-12",
        "group": "last-30-days",
        "lat": -61.864262048140816,
        "lon": 84.04323213825516,
        "alt_km": 519.3213474633758,
        "timestamp": "2025-12-24T07:45:04.931749+00:00",
        "meta_object_name": "FLOCK 4H-12",
        "meta_object_id": "2025-276BB",
        "meta_epoch": "2025-12-23T22:32:10.260096",
        "meta_mean_motion": 15.1810721,
        "meta_eccentricity": 0.00037501,
        "meta_inclination": 97.4399,
        "meta_ra_of_asc_node": 69.5212,
        "meta_arg_of_pericenter": 195.1876,
        "meta_mean_anomaly": 164.9246,
        "meta_ephemeris_type": 0,
        "meta_classification_type": "U",
        "meta_norad_cat_id": 66715,
        "meta_element_set_no": 999,
        "meta_rev_at_epoch": 413,
        "meta_bstar": 0.00090318821,
        "meta_mean_motion_dot": 0.00018388,
        "meta_mean_motion_ddot": 0,
        "tle_line1": "1 66715U 25276BB  25357.93900764  .00018388  00000+0  90319-3 0  9999",
        "tle_line2": "2 66715  97.4399  69.5212 0003750 195.1876 164.9246 15.18107210  4131"
      },
      "geometry": {
        "type": "Point",
        "coordinates": [
          84.04323213825516,
          -61.864262048140816
        ]
      }
    },
    {
      "type": "Feature",
      "properties": {
        "norad_id": 66716,
        "name": "FLOCK 4H-13",
        "group": "last-30-days",
        "lat": -50.56072165027968,
        "lon": 79.06342715010427,
        "alt_km": 519.3839691169924,
        "timestamp": "2025-12-24T07:45:04.931762+00:00",
        "meta_object_name": "FLOCK 4H-13",
        "meta_object_id": "2025-276BC",
        "meta_epoch": "2025-12-23T20:54:13.240512",
        "meta_mean_motion": 15.18206124,
        "meta_eccentricity": 0.00017223,
        "meta_inclination": 97.4427,
        "meta_ra_of_asc_node": 69.4742,
        "meta_arg_of_pericenter": 133.2997,
        "meta_mean_anomaly": 226.8381,
        "meta_ephemeris_type": 0,
        "meta_classification_type": "U",
        "meta_norad_cat_id": 66716,
        "meta_element_set_no": 999,
        "meta_rev_at_epoch": 381,
        "meta_bstar": 0.00049665583,
        "meta_mean_motion_dot": 0.00010097,
        "meta_mean_motion_ddot": 0,
        "tle_line1": "1 66716U 25276BC  25357.87098658  .00010097  00000+0  49666-3 0  9991",
        "tle_line2": "2 66716  97.4427  69.4742 0001722 133.2997 226.8381 15.18206124  3811"
      },
      "geometry": {
        "type": "Point",
        "coordinates": [
          79.06342715010427,
          -50.56072165027968
        ]
      }
    },
    {
      "type": "Feature",
      "properties": {
        "norad_id": 66717,
        "name": "FLOCK 4H-14",
        "group": "last-30-days",
        "lat": -39.14872335663196,
        "lon": 76.02776773846401,
        "alt_km": 518.4712428567618,
        "timestamp": "2025-12-24T07:45:04.931772+00:00",
        "meta_object_name": "FLOCK 4H-14",
        "meta_object_id": "2025-276BD",
        "meta_epoch": "2025-12-23T22:26:07.050048",
        "meta_mean_motion": 15.18356659,
        "meta_eccentricity": 0.00016804,
        "meta_inclination": 97.4413,
        "meta_ra_of_asc_node": 69.5379,
        "meta_arg_of_pericenter": 131.8899,
        "meta_mean_anomaly": 228.2479,
        "meta_ephemeris_type": 0,
        "meta_classification_type": "U",
        "meta_norad_cat_id": 66717,
        "meta_element_set_no": 999,
        "meta_rev_at_epoch": 307,
        "meta_bstar": 0.00033108247,
        "meta_mean_motion_dot": 6.735e-05,
        "meta_mean_motion_ddot": 0,
        "tle_line1": "1 66717U 25276BD  25357.93480382  .00006735  00000+0  33108-3 0  9996",
        "tle_line2": "2 66717  97.4413  69.5379 0001680 131.8899 228.2479 15.18356659  3073"
      },
      "geometry": {
        "type": "Point",
        "coordinates": [
          76.02776773846401,
          -39.14872335663196
        ]
      }
    }
  ]
}